SL-14 R/B               
1 16792U 86046B   25341.99934083  .00000826  00000+0  92529-4 0  9995
2 16792  82.4812 166.7911 0023393 167.5745 192.6053 14.85476528112794
SL-14 R/B               
1 16882U 86055B   25342.14280411  .00000782  00000+0  87581-4 0  9995
2 16882  82.5209 212.6920 0017470 276.0143 200.6075 14.85523948105776
AJISAI (EGS)            
1 16908U 86061A   25342.31180249 -.00000091  00000+0  46072-4 0  9992
2 16908  50.0114  14.3328 0011285  54.8329 310.1653 12.44514211456623
COSMOS 1812             
1 17295U 87003A   25342.28275813  .00094971  00000+0  65151-3 0  9994
2 17295  82.4873 296.8370 0007327  93.6966 266.5136 15.74366602129956
SL-14 R/B               
1 17567U 87024B   25342.26799470  .00000867  00000+0  96161-4 0  9994
2 17567  82.5278 178.6553 0017697 199.3674 160.6872 14.86017116 74550
COSMOS 1833             
1 17589U 87027A   25341.90398423  .00000086  00000+0  71814-4 0  9995
2 17589  70.9134 158.9431 0022330 338.4920  21.5260 14.13019717997348
SL-16 R/B               
1 17590U 87027B   25342.07324897 -.00000141  00000+0 -46219-4 0  9995
2 17590  71.0026 109.5509 0007487 264.4443  95.5826 14.17152181  2369
SL-14 R/B               
1 17912U 87038B   25342.21600489  .00000853  00000+0  96267-4 0  9991
2 17912  82.5021  22.9619 0020834 105.9505 254.4009 14.85255519 65652
COSMOS 1844             
1 17973U 87041A   25342.10688131 -.00000142  00000+0 -48393-4 0  9990
2 17973  70.8984 227.3427 0030211 164.5571 195.6479 14.14526507990631
SL-14 R/B               
1 18153U 87055B   25342.27603404  .00001010  00000+0  11385-3 0  9997
2 18153  82.5000  75.1948 0019648 318.9747  40.9990 14.85514597 56366
COSMOS 1867             
1 18187U 87060A   25342.06180922  .00000016  00000+0  43550-4 0  9997
2 18187  65.0097 203.3028 0013642 270.6237  89.3284 14.31484983  6820
SL-14 R/B               
1 18749U 88001B   25342.26531636  .00001000  00000+0  11306-3 0  9998
2 18749  82.5129 281.3557 0018059 175.7184 184.4190 14.85416954 28458
