CCSDS_OMM_VERS = 2.0
CREATION_DATE  = 
ORIGINATOR     = 

OBJECT_NAME    = SL-14 R/B
OBJECT_ID      = 1986-046B
CENTER_NAME    = EARTH
REF_FRAME      = TEME
TIME_SYSTEM    = UTC
MEAN_ELEMENT_THEORY = SGP/SGP4

EPOCH          = 2025-12-07T23:59:03.047712
MEAN_MOTION    = 14.85476528
ECCENTRICITY   = .0023393
INCLINATION    = 82.4812
RA_OF_ASC_NODE = 166.7911
ARG_OF_PERICENTER = 167.5745
MEAN_ANOMALY   = 192.6053

EPHEMERIS_TYPE = 0
CLASSIFICATION_TYPE = U
NORAD_CAT_ID   = 16792
ELEMENT_SET_NO = 999
REV_AT_EPOCH   = 11279
BSTAR          = .92528812E-4
MEAN_MOTION_DOT = .826E-5
MEAN_MOTION_DDOT = 0

CCSDS_OMM_VERS = 2.0
CREATION_DATE  = 
ORIGINATOR     = 

OBJECT_NAME    = SL-14 R/B
OBJECT_ID      = 1986-055B
CENTER_NAME    = EARTH
REF_FRAME      = TEME
TIME_SYSTEM    = UTC
MEAN_ELEMENT_THEORY = SGP/SGP4

EPOCH          = 2025-12-08T03:25:38.275104
MEAN_MOTION    = 14.85523948
ECCENTRICITY   = .00174704
INCLINATION    = 82.5209
RA_OF_ASC_NODE = 212.6920
ARG_OF_PERICENTER = 276.0143
MEAN_ANOMALY   = 200.6075

EPHEMERIS_TYPE = 0
CLASSIFICATION_TYPE = U
NORAD_CAT_ID   = 16882
ELEMENT_SET_NO = 999
REV_AT_EPOCH   = 10577
BSTAR          = .87581106E-4
MEAN_MOTION_DOT = .782E-5
MEAN_MOTION_DDOT = 0

CCSDS_OMM_VERS = 2.0
CREATION_DATE  = 
ORIGINATOR     = 

OBJECT_NAME    = AJISAI (EGS)
OBJECT_ID      = 1986-061A
CENTER_NAME    = EARTH
REF_FRAME      = TEME
TIME_SYSTEM    = UTC
MEAN_ELEMENT_THEORY = SGP/SGP4

EPOCH          = 2025-12-08T07:28:59.735136
MEAN_MOTION    = 12.44514211
ECCENTRICITY   = .00112857
INCLINATION    = 50.0114
RA_OF_ASC_NODE = 14.3328
ARG_OF_PERICENTER = 54.8329
MEAN_ANOMALY   = 310.1653

EPHEMERIS_TYPE = 0
CLASSIFICATION_TYPE = U
NORAD_CAT_ID   = 16908
ELEMENT_SET_NO = 999
REV_AT_EPOCH   = 45662
BSTAR          = .46072064E-4
MEAN_MOTION_DOT = -.91E-6
MEAN_MOTION_DDOT = 0

CCSDS_OMM_VERS = 2.0
CREATION_DATE  = 
ORIGINATOR     = 

OBJECT_NAME    = COSMOS 1812
OBJECT_ID      = 1987-003A
CENTER_NAME    = EARTH
REF_FRAME      = TEME
TIME_SYSTEM    = UTC
MEAN_ELEMENT_THEORY = SGP/SGP4

EPOCH          = 2025-12-08T06:47:10.302432
MEAN_MOTION    = 15.74366602
ECCENTRICITY   = .00073271
INCLINATION    = 82.4873
RA_OF_ASC_NODE = 296.8370
ARG_OF_PERICENTER = 93.6966
MEAN_ANOMALY   = 266.5136

EPHEMERIS_TYPE = 0
CLASSIFICATION_TYPE = U
NORAD_CAT_ID   = 17295
ELEMENT_SET_NO = 999
REV_AT_EPOCH   = 12995
BSTAR          = .65151331E-3
MEAN_MOTION_DOT = .94971E-3
MEAN_MOTION_DDOT = 0

CCSDS_OMM_VERS = 2.0
CREATION_DATE  = 
ORIGINATOR     = 

OBJECT_NAME    = SL-14 R/B
OBJECT_ID      = 1987-024B
CENTER_NAME    = EARTH
REF_FRAME      = TEME
TIME_SYSTEM    = UTC
MEAN_ELEMENT_THEORY = SGP/SGP4

EPOCH          = 2025-12-08T06:25:54.742080
MEAN_MOTION    = 14.86017116
ECCENTRICITY   = .00176976
INCLINATION    = 82.5278
RA_OF_ASC_NODE = 178.6553
ARG_OF_PERICENTER = 199.3674
MEAN_ANOMALY   = 160.6872

EPHEMERIS_TYPE = 0
CLASSIFICATION_TYPE = U
NORAD_CAT_ID   = 17567
ELEMENT_SET_NO = 999
REV_AT_EPOCH   = 7455
BSTAR          = .96161313E-4
MEAN_MOTION_DOT = .867E-5
MEAN_MOTION_DDOT = 0

CCSDS_OMM_VERS = 2.0
CREATION_DATE  = 
ORIGINATOR     = 

OBJECT_NAME    = COSMOS 1833
OBJECT_ID      = 1987-027A
CENTER_NAME    = EARTH
REF_FRAME      = TEME
TIME_SYSTEM    = UTC
MEAN_ELEMENT_THEORY = SGP/SGP4

EPOCH          = 2025-12-07T21:41:44.237472
MEAN_MOTION    = 14.13019717
ECCENTRICITY   = .00223301
INCLINATION    = 70.9134
RA_OF_ASC_NODE = 158.9431
ARG_OF_PERICENTER = 338.4920
MEAN_ANOMALY   = 21.5260

EPHEMERIS_TYPE = 0
CLASSIFICATION_TYPE = U
NORAD_CAT_ID   = 17589
ELEMENT_SET_NO = 999
REV_AT_EPOCH   = 99734
BSTAR          = .71813995E-4
MEAN_MOTION_DOT = .86E-6
MEAN_MOTION_DDOT = 0

CCSDS_OMM_VERS = 2.0
CREATION_DATE  = 
ORIGINATOR     = 

OBJECT_NAME    = SL-16 R/B
OBJECT_ID      = 1987-027B
CENTER_NAME    = EARTH
REF_FRAME      = TEME
TIME_SYSTEM    = UTC
MEAN_ELEMENT_THEORY = SGP/SGP4

EPOCH          = 2025-12-08T01:45:28.711008
MEAN_MOTION    = 14.17152181
ECCENTRICITY   = .0007487
INCLINATION    = 71.0026
RA_OF_ASC_NODE = 109.5509
ARG_OF_PERICENTER = 264.4443
MEAN_ANOMALY   = 95.5826

EPHEMERIS_TYPE = 0
CLASSIFICATION_TYPE = U
NORAD_CAT_ID   = 17590
ELEMENT_SET_NO = 999
REV_AT_EPOCH   = 236
BSTAR          = -.46218997E-4
MEAN_MOTION_DOT = -.141E-5
MEAN_MOTION_DDOT = 0

CCSDS_OMM_VERS = 2.0
CREATION_DATE  = 
ORIGINATOR     = 

OBJECT_NAME    = SL-14 R/B
OBJECT_ID      = 1987-038B
CENTER_NAME    = EARTH
REF_FRAME      = TEME
TIME_SYSTEM    = UTC
MEAN_ELEMENT_THEORY = SGP/SGP4

EPOCH          = 2025-12-08T05:11:02.822496
MEAN_MOTION    = 14.85255519
ECCENTRICITY   = .00208342
INCLINATION    = 82.5021
RA_OF_ASC_NODE = 22.9619
ARG_OF_PERICENTER = 105.9505
MEAN_ANOMALY   = 254.4009

EPHEMERIS_TYPE = 0
CLASSIFICATION_TYPE = U
NORAD_CAT_ID   = 17912
ELEMENT_SET_NO = 999
REV_AT_EPOCH   = 6565
BSTAR          = .96267491E-4
MEAN_MOTION_DOT = .853E-5
MEAN_MOTION_DDOT = 0

CCSDS_OMM_VERS = 2.0
CREATION_DATE  = 
ORIGINATOR     = 

OBJECT_NAME    = COSMOS 1844
OBJECT_ID      = 1987-041A
CENTER_NAME    = EARTH
REF_FRAME      = TEME
TIME_SYSTEM    = UTC
MEAN_ELEMENT_THEORY = SGP/SGP4

EPOCH          = 2025-12-08T02:33:54.545184
MEAN_MOTION    = 14.14526507
ECCENTRICITY   = .00302114
INCLINATION    = 70.8984
RA_OF_ASC_NODE = 227.3427
ARG_OF_PERICENTER = 164.5571
MEAN_ANOMALY   = 195.6479

EPHEMERIS_TYPE = 0
CLASSIFICATION_TYPE = U
NORAD_CAT_ID   = 17973
ELEMENT_SET_NO = 999
REV_AT_EPOCH   = 99063
BSTAR          = -.48392761E-4
MEAN_MOTION_DOT = -.142E-5
MEAN_MOTION_DDOT = 0

CCSDS_OMM_VERS = 2.0
CREATION_DATE  = 
ORIGINATOR     = 

OBJECT_NAME    = SL-14 R/B
OBJECT_ID      = 1987-055B
CENTER_NAME    = EARTH
REF_FRAME      = TEME
TIME_SYSTEM    = UTC
MEAN_ELEMENT_THEORY = SGP/SGP4

EPOCH          = 2025-12-08T06:37:29.341056
MEAN_MOTION    = 14.85514597
ECCENTRICITY   = .00196489
INCLINATION    = 82.5000
RA_OF_ASC_NODE = 75.1948
ARG_OF_PERICENTER = 318.9747
MEAN_ANOMALY   = 40.9990

EPHEMERIS_TYPE = 0
CLASSIFICATION_TYPE = U
NORAD_CAT_ID   = 18153
ELEMENT_SET_NO = 999
REV_AT_EPOCH   = 5636
BSTAR          = .11385148E-3
MEAN_MOTION_DOT = .101E-4
MEAN_MOTION_DDOT = 0

CCSDS_OMM_VERS = 2.0
CREATION_DATE  = 
ORIGINATOR     = 

OBJECT_NAME    = COSMOS 1867
OBJECT_ID      = 1987-060A
CENTER_NAME    = EARTH
REF_FRAME      = TEME
TIME_SYSTEM    = UTC
MEAN_ELEMENT_THEORY = SGP/SGP4

EPOCH          = 2025-12-08T01:29:00.316608
MEAN_MOTION    = 14.31484983
ECCENTRICITY   = .00136425
INCLINATION    = 65.0097
RA_OF_ASC_NODE = 203.3028
ARG_OF_PERICENTER = 270.6237
MEAN_ANOMALY   = 89.3284

EPHEMERIS_TYPE = 0
CLASSIFICATION_TYPE = U
NORAD_CAT_ID   = 18187
ELEMENT_SET_NO = 999
REV_AT_EPOCH   = 682
BSTAR          = .43550025E-4
MEAN_MOTION_DOT = .16E-6
MEAN_MOTION_DDOT = 0

CCSDS_OMM_VERS = 2.0
CREATION_DATE  = 
ORIGINATOR     = 

OBJECT_NAME    = SL-14 R/B
OBJECT_ID      = 1988-001B
CENTER_NAME    = EARTH
REF_FRAME      = TEME
TIME_SYSTEM    = UTC
MEAN_ELEMENT_THEORY = SGP/SGP4

EPOCH          = 2025-12-08T06:22:03.333504
MEAN_MOTION    = 14.85416954
ECCENTRICITY   = .00180597
INCLINATION    = 82.5129
RA_OF_ASC_NODE = 281.3557
ARG_OF_PERICENTER = 175.7184
MEAN_ANOMALY   = 184.4190

EPHEMERIS_TYPE = 0
CLASSIFICATION_TYPE = U
NORAD_CAT_ID   = 18749
ELEMENT_SET_NO = 999
REV_AT_EPOCH   = 2845
BSTAR          = .11306395E-3
MEAN_MOTION_DOT = .1E-4
MEAN_MOTION_DDOT = 0

